{
  "type": "FeatureCollection",
  "features": [
    {
      "type": "Feature",
      "geometry": {
        "type": "Point",
        "coordinates": [
          -98.5387518194819,
          33.93618219720634
        ]
      },
      "properties": {
        "index": 1
      }
    },
    {
      "type": "Feature",
      "geometry": {
        "type": "Point",
        "coordinates": [
          -98.48110973826728,
          33.92963059935081
        ]
      },
      "properties": {
        "index": 2
      }
    },
    {
      "type": "Feature",
      "geometry": {
        "type": "Point",
        "coordinates": [
          -98.51747914665272,
          33.92877600594995
        ]
      },
      "properties": {
        "index": 3
      }
    },
    {
      "type": "Feature",
      "geometry": {
        "type": "Point",
        "coordinates": [
          -98.48728567554029,
          33.89771996427575
        ]
      },
      "properties": {
        "index": 4
      }
    },
    {
      "type": "Feature",
      "geometry": {
        "type": "Point",
        "coordinates": [
          -98.43204534770962,
          33.9096878526496
        ]
      },
      "properties": {
        "index": 5
      }
    },
    {
      "type": "Feature",
      "geometry": {
        "type": "Point",
        "coordinates": [
          -98.45709220442788,
          33.871783776806545
        ]
      },
      "properties": {
        "index": 6
      }
    },
    {
      "type": "Feature",
      "geometry": {
        "type": "Point",
        "coordinates": [
          -98.51713603902641,
          33.872353887641715
        ]
      },
      "properties": {
        "index": 7
      }
    },
    {
      "type": "Feature",
      "geometry": {
        "type": "Point",
        "coordinates": [
          -98.54492775675492,
          33.89515519819693
        ]
      },
      "properties": {
        "index": 8
      }
    },
    {
      "type": "Feature",
      "geometry": {
        "type": "Point",
        "coordinates": [
          -98.55213301690674,
          33.926497048293434
        ]
      },
      "properties": {
        "index": 9
      }
    }
  ]
}