{
  "type": "FeatureCollection",
  "features": [
    {"type": "Feature", "geometry": {"type": "Point", "coordinates": [-106.27, 33.67]}, "properties": {"name": "Holbrook",    "mass_g": 220,    "year": 1912}},
    {"type": "Feature", "geometry": {"type": "Point", "coordinates": [7.63, 44.92]},   "properties": {"name": "Ensisheim",   "mass_g": 127000, "year": 1492}},
    {"type": "Feature", "geometry": {"type": "Point", "coordinates": [37.68, 15.38]},  "properties": {"name": "Nakhla",      "mass_g": 10000,  "year": 1911}},
    {"type": "Feature", "geometry": {"type": "Point", "coordinates": [131.10, -30.80]},"properties": {"name": "Mundrabilla", "mass_g": 24000,  "year": 1911}},
    {"type": "Feature", "geometry": {"type": "Point", "coordinates": [-71.67, -13.53]},"properties": {"name": "Juancheng",   "mass_g": 100000, "year": 1997}},
    {"type": "Feature", "geometry": {"type": "Point", "coordinates": [27.53, -25.87]}, "properties": {"name": "Tshane",      "mass_g": 3000,   "year": null}}
  ]
}